start=new Date('2021-11-18T00:00:00.000Z').valueOf();
sats=[{"REV_AT_EPOCH":"8828","MEAN_MOTION_DOT":"0.00001394","EPOCH":"2021-11-17T16:51:53.994528","MEAN_ANOMALY":"293.3623","CENTER_NAME":"EARTH","ARG_OF_PERICENTER":"66.7536","MEAN_MOTION":"15.06398046","ELEMENT_SET_NO":"999","TLE_LINE1":"1 45559U 20025AE  21321.70270827  .00001394  00000-0  11248-3 0  9995","ECCENTRICITY":"0.00016110","MEAN_ELEMENT_THEORY":"SGP4","EPHEMERIS_TYPE":"0","PERIAPSIS":"546.104","MEAN_MOTION_DDOT":"0.0000000000000","OBJECT_ID":"2020-025AE","REF_FRAME":"TEME","SEMIMAJOR_AXIS":"6925.355","LAUNCH_DATE":"2020-04-22","PERIOD":"95.592","COUNTRY_CODE":"US","SITE":"AFETR","CLASSIFICATION_TYPE":"U","GP_ID":"189974983","INCLINATION":"53.0544","BSTAR":"0.00011248000000","APOAPSIS":"548.335","OBJECT_TYPE":"PAYLOAD","DECAY_DATE":null,"NORAD_CAT_ID":"45559","TIME_SYSTEM":"UTC","OBJECT_NAME":"STARLINK-1344","RA_OF_ASC_NODE":"308.0317","TLE_LINE2":"2 45559  53.0544 308.0317 0001611  66.7536 293.3623 15.06398046 88281","RCS_SIZE":"LARGE","FILE":"3217982"},{"OBJECT_TYPE":"PAYLOAD","APOAPSIS":"548.350","BSTAR":"0.00009789300000","CLASSIFICATION_TYPE":"U","GP_ID":"189945652","INCLINATION":"53.0551","FILE":"3217692","OBJECT_NAME":"STARLINK-1346","RA_OF_ASC_NODE":"299.5897","RCS_SIZE":"LARGE","TLE_LINE2":"2 45560  53.0551 299.5897 0001619  63.8912 296.2243 15.06395121 88373","TIME_SYSTEM":"UTC","NORAD_CAT_ID":"45560","DECAY_DATE":null,"ECCENTRICITY":"0.00016190","ELEMENT_SET_NO":"999","TLE_LINE1":"1 45560U 20025AF  21321.35717132  .00001177  00000-0  97893-4 0  9993","MEAN_ELEMENT_THEORY":"SGP4","ARG_OF_PERICENTER":"63.8912","MEAN_MOTION":"15.06395121","CENTER_NAME":"EARTH","MEAN_ANOMALY":"296.2243","REV_AT_EPOCH":"8837","MEAN_MOTION_DOT":"0.00001177","EPOCH":"2021-11-17T08:34:19.602048","SITE":"AFETR","COUNTRY_CODE":"US","SEMIMAJOR_AXIS":"6925.364","LAUNCH_DATE":"2020-04-22","PERIOD":"95.592","OBJECT_ID":"2020-025AF","REF_FRAME":"TEME","EPHEMERIS_TYPE":"0","MEAN_MOTION_DDOT":"0.0000000000000","PERIAPSIS":"546.107"},{"OBJECT_TYPE":"PAYLOAD","BSTAR":"0.00023706000000","APOAPSIS":"544.608","CLASSIFICATION_TYPE":"U","GP_ID":"189974485","INCLINATION":"53.0587","FILE":"3217982","OBJECT_NAME":"STARLINK-1348","RA_OF_ASC_NODE":"221.6718","TLE_LINE2":"2 45561  53.0587 221.6718 0001971  67.8714 292.2485 15.07696109 89518","RCS_SIZE":"LARGE","NORAD_CAT_ID":"45561","TIME_SYSTEM":"UTC","DECAY_DATE":null,"TLE_LINE1":"1 45561U 20025AG  21321.90067803  .00003374  00000-0  23706-3 0  9990","ELEMENT_SET_NO":"999","ECCENTRICITY":"0.00019710","MEAN_ELEMENT_THEORY":"SGP4","ARG_OF_PERICENTER":"67.8714","MEAN_MOTION":"15.07696109","MEAN_ANOMALY":"292.2485","CENTER_NAME":"EARTH","REV_AT_EPOCH":"8951","MEAN_MOTION_DOT":"0.00003374","EPOCH":"2021-11-17T21:36:58.581792","PERIOD":"95.510","LAUNCH_DATE":"2020-04-22","SEMIMAJOR_AXIS":"6921.379","COUNTRY_CODE":"US","SITE":"AFETR","OBJECT_ID":"2020-025AG","REF_FRAME":"TEME","EPHEMERIS_TYPE":"0","PERIAPSIS":"541.880","MEAN_MOTION_DDOT":"0.0000000000000"},{"DECAY_DATE":null,"NORAD_CAT_ID":"45562","TIME_SYSTEM":"UTC","OBJECT_NAME":"STARLINK-1354","RA_OF_ASC_NODE":"309.4908","TLE_LINE2":"2 45562  53.0544 309.4908 0001569  67.3510 292.7645 15.06398321 87638","RCS_SIZE":"LARGE","FILE":"3217739","CLASSIFICATION_TYPE":"U","GP_ID":"189949605","INCLINATION":"53.0544","BSTAR":"-0.00000431100000","APOAPSIS":"548.305","OBJECT_TYPE":"PAYLOAD","EPHEMERIS_TYPE":"0","PERIAPSIS":"546.132","MEAN_MOTION_DDOT":"0.0000000000000","OBJECT_ID":"2020-025AH","REF_FRAME":"TEME","PERIOD":"95.592","LAUNCH_DATE":"2020-04-22","SEMIMAJOR_AXIS":"6925.354","COUNTRY_CODE":"US","SITE":"AFETR","REV_AT_EPOCH":"8763","MEAN_MOTION_DOT":"-0.00000346","EPOCH":"2021-11-17T09:04:49.174752","MEAN_ANOMALY":"292.7645","CENTER_NAME":"EARTH","ARG_OF_PERICENTER":"67.3510","MEAN_MOTION":"15.06398321","ELEMENT_SET_NO":"999","TLE_LINE1":"1 45562U 20025AH  21321.37834693 -.00000346  00000-0 -43110-5 0  9992","ECCENTRICITY":"0.00015690","MEAN_ELEMENT_THEORY":"SGP4"},{"ARG_OF_PERICENTER":"67.2826","MEAN_MOTION":"15.06410993","ELEMENT_SET_NO":"999","TLE_LINE1":"1 45563U 20025AJ  21321.65847650  .00002000  00000-0  15306-3 0  9992","ECCENTRICITY":"0.00016110","MEAN_ELEMENT_THEORY":"SGP4","REV_AT_EPOCH":"8827","MEAN_MOTION_DOT":"0.00002000","EPOCH":"2021-11-17T15:48:12.369600","MEAN_ANOMALY":"292.8333","CENTER_NAME":"EARTH","PERIOD":"95.591","LAUNCH_DATE":"2020-04-22","SEMIMAJOR_AXIS":"6925.315","COUNTRY_CODE":"US","SITE":"AFETR","EPHEMERIS_TYPE":"0","PERIAPSIS":"546.064","MEAN_MOTION_DDOT":"0.0000000000000","OBJECT_ID":"2020-025AJ","REF_FRAME":"TEME","OBJECT_TYPE":"PAYLOAD","CLASSIFICATION_TYPE":"U","INCLINATION":"53.0544","GP_ID":"189975484","BSTAR":"0.00015306000000","APOAPSIS":"548.296","RA_OF_ASC_NODE":"308.2383","OBJECT_NAME":"STARLINK-1355","TLE_LINE2":"2 45563  53.0544 308.2383 0001611  67.2826 292.8333 15.06410993 88276","RCS_SIZE":"LARGE","FILE":"3217982","DECAY_DATE":null,"NORAD_CAT_ID":"45563","TIME_SYSTEM":"UTC"},{"OBJECT_NAME":"STARLINK-1356","RA_OF_ASC_NODE":"309.1386","TLE_LINE2":"2 45564  53.0538 309.1386 0001642  68.3347 291.7816 15.06409333 88244","RCS_SIZE":"LARGE","FILE":"3217982","DECAY_DATE":null,"NORAD_CAT_ID":"45564","TIME_SYSTEM":"UTC","OBJECT_TYPE":"PAYLOAD","CLASSIFICATION_TYPE":"U","INCLINATION":"53.0538","GP_ID":"189975737","BSTAR":"0.00015105000000","APOAPSIS":"548.322","LAUNCH_DATE":"2020-04-22","SEMIMAJOR_AXIS":"6925.320","PERIOD":"95.592","SITE":"AFETR","COUNTRY_CODE":"US","EPHEMERIS_TYPE":"0","PERIAPSIS":"546.048","MEAN_MOTION_DDOT":"0.0000000000000","OBJECT_ID":"2020-025AK","REF_FRAME":"TEME","ARG_OF_PERICENTER":"68.3347","MEAN_MOTION":"15.06409333","TLE_LINE1":"1 45564U 20025AK  21321.45574571  .00001970  00000-0  15105-3 0  9992","ELEMENT_SET_NO":"999","ECCENTRICITY":"0.00016420","MEAN_ELEMENT_THEORY":"SGP4","REV_AT_EPOCH":"8824","MEAN_MOTION_DOT":"0.00001970","EPOCH":"2021-11-17T10:56:16.429344","MEAN_ANOMALY":"291.7816","CENTER_NAME":"EARTH"},{"TIME_SYSTEM":"UTC","NORAD_CAT_ID":"45565","DECAY_DATE":null,"FILE":"3217692","RCS_SIZE":"LARGE","TLE_LINE2":"2 45565  53.0549 310.0716 0001538  76.0211 284.0948 15.06398333 88210","RA_OF_ASC_NODE":"310.0716","OBJECT_NAME":"STARLINK-1357","APOAPSIS":"548.284","BSTAR":"0.00000705100000","GP_ID":"189945404","INCLINATION":"53.0549","CLASSIFICATION_TYPE":"U","OBJECT_TYPE":"PAYLOAD","REF_FRAME":"TEME","OBJECT_ID":"2020-025AL","MEAN_MOTION_DDOT":"0.0000000000000","PERIAPSIS":"546.154","EPHEMERIS_TYPE":"0","COUNTRY_CODE":"US","SITE":"AFETR","PERIOD":"95.592","LAUNCH_DATE":"2020-04-22","SEMIMAJOR_AXIS":"6925.354","CENTER_NAME":"EARTH","MEAN_ANOMALY":"284.0948","EPOCH":"2021-11-17T05:59:03.185952","MEAN_MOTION_DOT":"-0.00000176","REV_AT_EPOCH":"8821","MEAN_ELEMENT_THEORY":"SGP4","ECCENTRICITY":"0.00015380","TLE_LINE1":"1 45565U 20025AL  21321.24934243 -.00000176  00000-0  70510-5 0  9997","ELEMENT_SET_NO":"999","MEAN_MOTION":"15.06398333","ARG_OF_PERICENTER":"76.0211"},{"APOAPSIS":"548.292","BSTAR":"-0.00000215630000","CLASSIFICATION_TYPE":"U","INCLINATION":"53.0548","GP_ID":"189974235","OBJECT_TYPE":"PAYLOAD","TIME_SYSTEM":"UTC","NORAD_CAT_ID":"45566","DECAY_DATE":null,"FILE":"3217982","OBJECT_NAME":"STARLINK-1358","RA_OF_ASC_NODE":"308.2239","RCS_SIZE":"LARGE","TLE_LINE2":"2 45566  53.0548 308.2239 0001561  65.8459 294.2693 15.06400794 88276","CENTER_NAME":"EARTH","MEAN_ANOMALY":"294.2693","REV_AT_EPOCH":"8827","MEAN_MOTION_DOT":"-0.00000314","EPOCH":"2021-11-17T15:53:30.796800","ECCENTRICITY":"0.00015610","TLE_LINE1":"1 45566U 20025AM  21321.66216200 -.00000314  00000-0 -21563-5 0  9999","ELEMENT_SET_NO":"999","MEAN_ELEMENT_THEORY":"SGP4","ARG_OF_PERICENTER":"65.8459","MEAN_MOTION":"15.06400794","OBJECT_ID":"2020-025AM","REF_FRAME":"TEME","EPHEMERIS_TYPE":"0","MEAN_MOTION_DDOT":"0.0000000000000","PERIAPSIS":"546.130","COUNTRY_CODE":"US","SITE":"AFETR","LAUNCH_DATE":"2020-04-22","PERIOD":"95.592","SEMIMAJOR_AXIS":"6925.346"},{"CENTER_NAME":"EARTH","MEAN_ANOMALY":"297.0106","EPOCH":"2021-11-17T16:09:25.947072","REV_AT_EPOCH":"8828","MEAN_MOTION_DOT":"0.00002601","MEAN_ELEMENT_THEORY":"SGP4","ECCENTRICITY":"0.00015600","ELEMENT_SET_NO":"999","TLE_LINE1":"1 45567U 20025AN  21321.67321698  .00002601  00000-0  19345-3 0  9991","MEAN_MOTION":"15.06405783","ARG_OF_PERICENTER":"63.1042","REF_FRAME":"TEME","OBJECT_ID":"2020-025AN","MEAN_MOTION_DDOT":"0.0000000000000","PERIAPSIS":"546.115","EPHEMERIS_TYPE":"0","SITE":"AFETR","COUNTRY_CODE":"US","LAUNCH_DATE":"2020-04-22","SEMIMAJOR_AXIS":"6925.331","PERIOD":"95.592","APOAPSIS":"548.276","BSTAR":"0.00019345000000","GP_ID":"189974984","INCLINATION":"53.0534","CLASSIFICATION_TYPE":"U","OBJECT_TYPE":"PAYLOAD","TIME_SYSTEM":"UTC","NORAD_CAT_ID":"45567","DECAY_DATE":null,"FILE":"3217982","RCS_SIZE":"LARGE","TLE_LINE2":"2 45567  53.0534 308.1655 0001560  63.1042 297.0106 15.06405783 88285","RA_OF_ASC_NODE":"308.1655","OBJECT_NAME":"STARLINK-1361"},{"NORAD_CAT_ID":"45568","TIME_SYSTEM":"UTC","DECAY_DATE":null,"FILE":"3217982","OBJECT_NAME":"STARLINK-1363","RA_OF_ASC_NODE":"308.2079","TLE_LINE2":"2 45568  53.0536 308.2079 0001803  70.3968 289.7216 15.06398953 88275","RCS_SIZE":"LARGE","BSTAR":"-0.00009045500000","APOAPSIS":"548.465","CLASSIFICATION_TYPE":"U","INCLINATION":"53.0536","GP_ID":"189975237","OBJECT_TYPE":"PAYLOAD","OBJECT_ID":"2020-025AP","REF_FRAME":"TEME","EPHEMERIS_TYPE":"0","PERIAPSIS":"545.968","MEAN_MOTION_DDOT":"0.0000000000000","SEMIMAJOR_AXIS":"6925.352","LAUNCH_DATE":"2020-04-22","PERIOD":"95.592","COUNTRY_CODE":"US","SITE":"AFETR","MEAN_ANOMALY":"289.7216","CENTER_NAME":"EARTH","REV_AT_EPOCH":"8827","MEAN_MOTION_DOT":"-0.00001629","EPOCH":"2021-11-17T15:57:28.070208","ELEMENT_SET_NO":"999","TLE_LINE1":"1 45568U 20025AP  21321.66490822 -.00001629  00000-0 -90455-4 0  9990","ECCENTRICITY":"0.00018030","MEAN_ELEMENT_THEORY":"SGP4","ARG_OF_PERICENTER":"70.3968","MEAN_MOTION":"15.06398953"}];
